#aV2011  1 20  0  0   .00000000      96 DD+AD WGS84 FIT  NGA
## 1619 345600.00000000   900.00000000 55581  .0000000000000
+   32     1  2  3  4  5  6  7  8  9 10 11 12 13 14 15 16 17
+         18 19 20 21 22 23 24 25 26 27 28 29 30 31 32  0  0
+          0  0  0  0  0  0  0  0  0  0  0  0  0  0  0  0  0
+          0  0  0  0  0  0  0  0  0  0  0  0  0  0  0  0  0
+          0  0  0  0  0  0  0  0  0  0  0  0  0  0  0  0  0
++         0  0  0  0  0  0  0  0  0  0  0  0  0  0  0  0  0
++         0  0  0  0  0  0  0  0  0  0  0  0  0  0  0  0  0
++         0  0  0  0  0  0  0  0  0  0  0  0  0  0  0  0  0
++         0  0  0  0  0  0  0  0  0  0  0  0  0  0  0  0  0
++         0  0  0  0  0  0  0  0  0  0  0  0  0  0  0  0  0
%c cc cc ccc ccc cccc cccc cccc cccc ccccc ccccc ccccc ccccc
%c cc cc ccc ccc cccc cccc cccc cccc ccccc ccccc ccccc ccccc
%f  0.0000000  0.000000000  0.00000000000  0.000000000000000
%f  0.0000000  0.000000000  0.00000000000  0.000000000000000
%i    0    0    0    0      0      0      0      0         0
%i    0    0    0    0      0      0      0      0         0
/*      NGA, ST. LOUIS,MO.                                  
/*   EPHEMERIS COMPUTED FROM  3 DAYS OF DATA                
/* CCCCCCCCCCCCCCCCCCCCCCCCCCCCCCCCCCCCCCCCCCCCCCCCCCCCCCCCC
/* CCCCCCCCCCCCCCCCCCCCCCCCCCCCCCCCCCCCCCCCCCCCCCCCCCCCCCCCC
*  2011  1 20 21  0   .00000000                                                 
P  1 -23837.667280  -6672.446144  -9916.139026   -201.744211                    
V  1  12364.366080  -2278.834141 -28378.911190      -.031613                    
P  2  17829.941305  -3189.306251 -19254.877996    315.816780                    
V  2 -10328.316455  22516.012000 -13759.563846       .021565                    
P  3 -18911.700307  -2262.398347  18231.868927    665.161463                    
V  3 -13120.416629 -20161.353256 -15442.190050       .050639                    
P  4  13538.903684   8156.920209 -21543.852272     13.896287                    
V  4 -13576.795677  23308.308121    650.185552       .099670                    
P  5  26383.599925  -2145.939269   2762.977904   -101.965902                    
V  5   3544.623369   2857.456374 -31309.853044      -.059371                    
P  6 -19494.403247  -7009.526506  16890.058850    -23.489675                    
V  6  -9883.711827 -18804.576628 -19200.461111      -.285517                    
P  7  -3122.091042  22904.606296  12903.731710      2.143889                    
V  7 -10048.595403  13166.208132 -26006.933823       .006301                    
P  8   5171.102258  15978.790358  20437.508138      7.211243                    
V  8 -15408.526661  20949.354985 -13018.380606       .002284                    
P  9  14902.131288 -21417.568791   4382.837861     56.600270                    
V  9  -1058.651342   6522.897837  31593.051268       .023525                    
P 10  22759.487049   8507.363701 -11359.473856    -63.828095                    
V 10 -14040.597427   2116.553417 -26673.185187      -.011347                    
P 11 -11158.484860  23158.466154   5593.217590   -120.856230                    
V 11  -2998.818781  -8777.884308  29119.402529      -.029555                    
P 12  17864.902463 -10874.108133 -16238.086584    -34.055920                    
V 12  20705.367724   1921.336474  21599.904442       .033316                    
P 13   3738.212889  23983.316002 -10864.785674    285.235038                    
V 13  -7371.254426 -11499.147289 -28319.998230      -.012552                    
P 14 -15114.140383 -21136.771932  -5670.173435    125.288972                    
V 14  -1665.086982  -7421.644182  31106.411376       .029047                    
P 15   9462.563175 -13219.703760  20992.083851   -159.294979                    
V 15  14576.496856  22362.628917   7671.422953       .037501                    
P 16 -26685.608817  -1170.059481   -663.392655   -144.258117                    
V 16    931.033973  -2103.942885 -31856.229709      -.030202                    
P 17  15014.558827  21682.733278  -3931.400611    181.986134                    
V 17    189.102831   5721.089829  31098.380423       .004686                    
P 18  -6368.216911 -15555.411526  20928.288798    117.034040                    
V 18  25937.647396   -318.876043   7394.320997       .020876                    
P 19 -12972.090133   8148.819312  21683.305741   -103.393197                    
V 19 -12221.028305 -24697.640584   2298.163501      -.035916                    
P 20 -12872.291559  14206.892482 -18502.276747     48.753471                    
V 20 -23364.649922   -900.569254  15755.019291      -.000627                    
P 21   1267.356648 -22555.528073  13831.618293   -118.103435                    
V 21  11458.503425 -13309.477598 -24013.145293      -.027140                    
P 22 -17995.782547 -11962.189417  15671.113115    154.692436                    
V 22  19689.715526  -2079.631349  21152.655861      -.005841                    
P 23  -4902.523010  17824.448855 -18944.199407    331.004539                    
V 23 -13266.700472 -20239.039002 -15937.731527      -.022870                    
P 24 -15504.570888  21286.610261   2131.669531    358.227160                    
V 24  -1449.304280  -4094.802353  31488.008059       .033082                    
P 25   2291.736747 -15160.149886 -21701.472800    -64.596222                    
V 25  27518.047313   -255.854970   3088.830418      -.018874                    
P 26  16046.659264   1947.101377  20594.722807   -101.001788                    
V 26  11531.536517  24755.995229 -10618.997669      -.092393                    
P 27  17296.629195 -16619.987929  11772.174568    228.925530                    
V 27  -4637.725220  13323.195276  27461.855657       .035776                    
P 28  14649.608321  13105.330170  18500.492085     15.598576                    
V 28 -22350.291280    291.130364  17723.517251       .020744                    
P 29  -2439.480174 -23197.522510 -12658.175252    179.440866                    
V 29   9660.218529  13183.237177 -25822.788981       .027100                    
P 30 -25146.345420  -4310.254525  -7852.054663    315.188387                    
V 30   9284.197474  -3028.293384 -29577.661780       .030882                    
P 31 -13749.613499  -5561.484119 -21827.400717     31.988651                    
V 31  14051.286323 -24416.634684  -2410.381644       .043761                    
P 32 -20947.772760   7950.511038 -13651.559454   -179.298692                    
V 32 -17725.506267  -4114.945408  24667.021736      -.080190                    
EOF
